0 WESTFORD NEEDLES
1 03257U 63014BX  13280.36697561  .00000004  00000-0  65555-3 0  6549
2 03257 087.2687 237.2291 0308278 233.6520 288.4686 08.65479543997987
0 WESTFORD NEEDLES
1 03257U 63014BX  13288.34306273 -.00000162  00000-0 -73461-1 0  6553
2 03257 087.2671 236.4501 0307788 225.3858 299.9724 08.65479633998679
